#cP2008  9 26  0  0  0.00000000      96 ORBIT IGS05 HLM  IGS
## 1498 432000.00000000   900.00000000 54735 0.0000000000000
+   32   G01G02G03G04G05G06G07G08G09G10G11G12G13G14G15G16G17
+        G18G19G20G21G22G23G24G25G26G27G28G29G30G31G32  0  0
+          0  0  0  0  0  0  0  0  0  0  0  0  0  0  0  0  0
+          0  0  0  0  0  0  0  0  0  0  0  0  0  0  0  0  0
+          0  0  0  0  0  0  0  0  0  0  0  0  0  0  0  0  0
++         4  2  2  2  3  2  2  2  2  2  2  2  2  2  2  3  2
++         2  3  2  3  3  2  2  2  3  2  3  2  2  3  2  0  0
++         0  0  0  0  0  0  0  0  0  0  0  0  0  0  0  0  0
++         0  0  0  0  0  0  0  0  0  0  0  0  0  0  0  0  0
++         0  0  0  0  0  0  0  0  0  0  0  0  0  0  0  0  0
%c G  cc GPS ccc cccc cccc cccc cccc ccccc ccccc ccccc ccccc
%c cc cc ccc ccc cccc cccc cccc cccc ccccc ccccc ccccc ccccc
%f  1.2500000  1.025000000  0.00000000000  0.000000000000000
%f  0.0000000  0.000000000  0.00000000000  0.000000000000000
%i    0    0    0    0      0      0      0      0         0
%i    0    0    0    0      0      0      0      0         0
/* FINAL ORBIT COMBINATION FROM WEIGHTED AVERAGE OF:        
/* cod emr esa gfz grg jpl mit ngs sio                      
/* REFERENCED TO IGS TIME (IGST) AND TO WEIGHTED MEAN POLE: 
/* PCV:IGS05_1480 OL/AL:FES2004  NONE     Y  ORB:CMB CLK:CMB
*  2008  9 26 21 45  0.00000000
PG01  12513.386483  16389.584391  17018.337770 999999.999999
PG02 -13875.446517 -19576.559097 -11920.715542    184.491543 10  7  8 102       
PG03  22487.093855  11233.927977  -9394.406809    288.817425  9  6  7 146       
PG04  -6011.177345 -25661.485337    -47.030993   -182.905642  7  5  9 137       
PG05 -20687.790558  13557.260215   9207.031861   -155.309425  9 11  8 166       
PG06  18953.689668  13958.982634 -12116.543490    164.218676  8  7  8 122       
PG07   9108.741726 -16795.365669 -18435.812738     19.441785  5  5  2 137       
PG08   1482.379045 -24729.299500  -8936.023803   -171.691474  8  4  5 143       
PG09 -15100.732372   -343.288877  21220.798826     16.914815  8  7  7  94       
PG10 -13589.768976  -7989.491208 -21552.796618     -5.305281  7  5  4 139       
PG11  16690.651835  -3047.568607  20302.217508     19.131874  7  6  4 133       
PG12 -21528.265395   7189.160255  13792.504940   -349.219109  8  8  8 149       
PG13  15884.055702  -8042.045137 -19823.175478    272.381202  7  6  6 136       
PG14   4317.339597  15928.623109  20950.192963   -214.827025  7  6  5 124       
PG15 -25751.833362  -6459.929771   1087.125343   -184.061536 10  6  7 153       
PG16   8240.517278  12782.663056 -21701.962633    104.815158  9 10  9 156       
PG17  -3471.312461 -16294.051761  20764.814878     39.137811  6  6  3 129       
PG18 -16645.896035  19816.007484   5224.652570   -129.657095  8  6    148       
PG19  25471.311296   7469.826554   2724.304328     35.600360  9  8  7 147       
PG20  21773.837244 -10866.589943  10489.704974    103.565416  9  7  7 158       
PG21  -6538.979578  20720.084168 -14636.276238     49.086709  6  6  5 167       
PG22  -6154.359328  20579.808995  15744.452196    210.777590  7  6  6 108       
PG23  23532.437195  -1859.004754 -12496.562201    374.644352  8  8  4 117       
PG24 -13879.955555   7718.761848 -21164.709326    128.465344  5  5  7 102       
PG25  11809.102485 -10392.177932 -21073.161626   -123.815691  5  6  3 106       
PG26 -24109.340434 -11248.465844  -4112.015086    331.251199  8  9  9 122       
PG27   5645.830063 -19595.801360 -16277.364277    220.612407  7  5  4  82       
PG28   7313.511852 -20679.524051  15126.516899    -22.775103  6  8  8 114       
PG29 -18715.099331   6834.126923 -17437.179441    -36.424448  7  7  3 108       
PG30 -18748.455661  18717.935871    607.796524     98.777723  6  6  3 158       
PG31   8074.944879  25069.699069  -2733.139133    -28.823060 10  9  7 144       
PG32  21052.003695  -2437.265570  16322.269678    316.554648  6  7  6 119       
*  2008  9 26 22  0  0.00000000
PG01  10587.585732  15854.172027  18758.551706 999999.999999
PG02 -13978.693682 -20794.211736  -9492.541167    184.489170 10  7  8 110       
PG03  21288.511610  11335.672429 -11794.856026    288.822824  9  7  8 139       
PG04  -5640.676878 -25584.371330   2786.547810   -182.915717  7  5  9 132       
PG05 -20121.638346  12418.023309  11673.601215   -155.393612  8 10  8  96       
PG06  17387.090066  13892.839538 -14309.342910    164.216799  7  7  9 127       
PG07   9808.923988 -14721.926935 -19808.833084     19.443588  5  6  2 133       
PG08   1924.063062 -23625.091266 -11533.161406   -171.692384  8  4  5 123       
PG09 -15807.073358  -2763.926914  20549.308185     16.916149  8  7  7  84       
PG10 -11835.842638  -9702.234923 -21855.097834     -5.305757  7  5  4 140       
PG11  17671.474479   -913.015405  19707.661641     19.131327  8  6  5 132       
PG12 -20469.044007   5860.238881  15893.773673   -349.217815  8  8  8 146       
PG13  17913.863339  -7322.435607 -18304.328471    272.382000  7  6  6 133       
PG14   1993.306607  15287.193139  21756.580148   -214.822852  7  6  5 122       
PG15 -25648.485917  -6705.460008  -1761.038957   -184.067468 10  5  7 157       
PG16   6439.841617  14473.561986 -21226.949225    104.813265  8 10  9 155       
PG17  -1138.908017 -15710.146676  21448.297748     39.137957  6  6  3 123       
PG18 -17172.022702  19872.750525   2423.328906   -129.653656  8  6    150       
PG19  25526.124540   7748.763639   -108.204779     35.600429  8  8  8 149       
PG20  21027.835659  -9705.877897  12860.003476    103.564630  9  7  7 159       
PG21  -7244.696563  18991.568653 -16555.127166     49.085569  6  7  5 167       
PG22  -7521.598093  21555.396414  13683.798174    210.777327  8  6  6 106       
PG23  24717.598384  -1366.156273 -10041.329139    374.645644  8  8  4 125       
PG24 -14440.986500   5307.560057 -21501.342198    128.468360  5  4  6 115       
PG25  12736.633829  -8059.895188 -21525.731165   -123.778634  5  7  3 100       
PG26 -23539.874984 -11186.603535  -6911.502506    331.256455  8  9  9           
PG27   6472.501495 -17674.878838 -18015.828459    220.613965  8  6  4  99       
PG28   8574.138232 -21613.637505  12912.047443    -22.775406  7  8  8 112       
PG29 -20505.867616   6148.853367 -15589.240662    -36.423108  8  7  4 116       
PG30 -18785.404353  18318.512510   3433.659130     98.778923  6  6  3 157       
PG31   7890.365668  25298.884671    141.126017    -28.825042 10  8  6 152       
PG32  19703.389732  -1089.247026  18118.002283    316.554682  5  7  6 115       
*  2008  9 26 22 15  0.00000000
PG01   8462.696869  15385.673616  20182.626767 999999.999999
PG02 -14049.679868 -21740.820234  -6905.218330    184.486939 10  6  8  99       
PG03  19841.905973  11470.912834 -13998.761662    288.828811  9  7  8 144       
PG04  -5165.929342 -25221.194649   5570.984847   -182.925863  7  6  9 142       
PG05 -19453.715285  11032.478186  13934.874408   -155.477882  8 11  8 101       
PG06  15586.141597  13865.653072 -16253.047034    164.214689  7  7  9 117       
PG07  10660.636749 -12560.118797 -20840.922574     19.445516  5  6  2 130       
PG08   2501.560520 -22273.082674 -13927.292165   -171.693985  8  4  5 132       
PG09 -16602.747070  -5047.440616  19504.066056     16.917431  8  7  8  90       
PG10 -10163.537741 -11516.989307 -21786.409442     -5.306180  7  5  3 145       
PG11  18694.032671   1101.833667  18771.126792     19.130649  8  5  5 134       
PG12 -19334.700216   4311.482878  17721.818086   -349.216012  9  8  8 149       
PG13  19798.609799  -6766.546829 -16473.240855    272.383242  8  7  7 129       
PG14   -432.661895  14763.440391  22192.993253   -214.818403  7  5  5 118       
PG15 -25242.707898  -6897.857519  -4578.918561   -184.073080 11  5  7 152       
PG16   4779.795104  16202.740510 -20383.646655    104.811392  7  9  9 156       
PG17   1277.576616 -15236.829755  21764.819440     39.138015  6  7  3 125       
PG18 -17476.168500  19719.876566   -420.559791   -129.649835  8  7    147       
PG19  25287.576489   7941.309571  -2938.869269     35.600458  8  8  8 149       
PG20  20174.927033  -8313.279897  15007.231045    103.563643  9  6  8 157       
PG21  -8089.297182  17106.351947 -18177.735128     49.084384  6  7  6 163       
PG22  -8671.453912  22420.088866  11389.156690    210.777711  8  6  6 113       
PG23  25647.271650   -995.038689  -7416.241059    374.646829  9  7  4 118       
PG24 -15128.069509   2908.547207 -21462.910364    128.471040  6  4  6 111       
PG25  13797.532768  -5749.629205 -21595.898071   -123.741584  5  7  3  99       
PG26 -22673.044643 -11083.017467  -9597.311897    331.261080  8  9  9  54       
PG27   7469.703191 -15627.356010 -19425.928570    220.615830  8  6  4  87       
PG28   9610.035927 -22420.766508  10476.308681    -22.775680  7  8  8 120       
PG29 -22109.133054   5606.216677 -13470.657600    -36.421956  9  7  4 126       
PG30 -18644.580770  17671.897577   6199.732144     98.778790  6  6  4 157       
PG31   7613.266371  25228.367318   3012.966613    -28.827265  9  8  6 150       
PG32  18298.656982    453.369253  19609.886415    316.554966  5  7  6 121       
EOF
